SL-16 R/B               
1 22803U 93059B   26100.52073454  .00000235  00000+0  13997-3 0  9991
2 22803  70.9900 304.0029 0016649 169.0343 191.1147 14.17237855684041
ARIANE 40 R/B           
1 22830U 93061H   26100.47128625  .00000190  00000+0  85352-4 0  9994
2 22830  98.4862 168.7227 0010743 183.8742 176.2361 14.32879028698659
COSMOS 2278             
1 23087U 94023A   26100.42336998  .00000229  00000+0  14408-3 0  9993
2 23087  71.0502 108.7051 0009562 327.7957  32.2581 14.14376824649292
SL-16 R/B               
1 23088U 94023B   26100.17273824 -.00000092  00000+0 -22922-4 0  9995
2 23088  71.0031   4.7704 0005659 258.7504 101.2983 14.15020399650541
SL-16 R/B               
1 23343U 94074B   26100.53323550  .00000409  00000+0  61400-4 0  9991
2 23343  97.7061 130.0544 0007982 113.0642  48.9560 14.79446019691954
SL-16 R/B               
1 23405U 94077B   26100.49539817 -.00000039  00000+0  44370-5 0  9991
2 23405  70.9812 285.5754 0001287 174.7696 185.3440 14.15566752620732
ARIANE 40+ R/B          
1 23561U 95021B   26100.42727250  .00000265  00000+0  98244-4 0  9995
2 23561  98.4446 171.4713 0007586  54.5872 315.8503 14.39796583623815
SL-16 R/B               
1 23705U 95058B   26100.43328439  .00000266  00000+0  16016-3 0  9999
2 23705  71.0186 113.6110 0010489  67.6663 292.5570 14.15499721572345
SL-16 R/B               
1 24298U 96051B   26100.46887424  .00000052  00000+0  54777-4 0  9998
2 24298  70.7579 107.9747 0012791  94.7825 265.4756 14.12424450526131
ORBVIEW 2 (SEASTAR)     
1 24883U 97037A   26100.41087382  .00000268  00000+0  10925-3 0  9998
2 24883  98.8623 265.5724 0001741 356.2552   3.8619 14.35518428513024
SL-16 R/B               
1 25400U 98043G   26100.44534448  .00000064  00000+0  45938-4 0  9992
2 25400  98.8303  54.0445 0008793 284.4322  75.5881 14.26057519443519
SL-16 R/B               
1 25407U 98045B   26100.42861380  .00000292  00000+0  17129-3 0  9990
2 25407  71.0087 114.8287 0008565 322.7204  37.3324 14.16196616431593
ISS (ZARYA)             
1 25544U 98067A   26100.52154889  .00006547  00000+0  12746-3 0  9995
2 25544  51.6328 274.9695 0006412 295.7162  64.3164 15.48861768561262
CZ-4B R/B               
1 25732U 99025C   26100.40220308  .00000032  00000+0  36172-4 0  9999
2 25732  98.6562 143.9228 0036022 253.1057 117.2198 14.18271934392667
OKEAN-O                 
1 25860U 99039A   26100.42030441  .00000610  00000+0  86747-4 0  9990
2 25860  97.9379 159.9787 0001025 112.8584 247.2736 14.80388621439086
SL-16 R/B               
1 25861U 99039B   26100.43792244  .00000541  00000+0  75210-4 0  9994
2 25861  97.9901 159.4763 0015514 149.9873 210.2232 14.81777886441560
DELTA 2 R/B             
1 25876U 99041E   26100.50949902  .00000791  00000+0  16692-3 0  9991
2 25876  51.7604 174.1655 0502595  82.2620 283.5058 14.11910980367526
