[{"OBJECT_NAME":"SL-16 R/B","OBJECT_ID":"1993-059B","EPOCH":"2026-04-10T12:29:51.464256","MEAN_MOTION":14.17237855,"ECCENTRICITY":0.0016649,"INCLINATION":70.99,"RA_OF_ASC_NODE":304.0029,"ARG_OF_PERICENTER":169.0343,"MEAN_ANOMALY":191.1147,"EPHEMERIS_TYPE":0,"CLASSIFICATION_TYPE":"U","NORAD_CAT_ID":22803,"ELEMENT_SET_NO":999,"REV_AT_EPOCH":68404,"BSTAR":0.00013997,"MEAN_MOTION_DOT":2.35e-6,"MEAN_MOTION_DDOT":0},{"OBJECT_NAME":"ARIANE 40 R/B","OBJECT_ID":"1993-061H","EPOCH":"2026-04-10T11:18:39.132000","MEAN_MOTION":14.32879028,"ECCENTRICITY":0.0010743,"INCLINATION":98.4862,"RA_OF_ASC_NODE":168.7227,"ARG_OF_PERICENTER":183.8742,"MEAN_ANOMALY":176.2361,"EPHEMERIS_TYPE":0,"CLASSIFICATION_TYPE":"U","NORAD_CAT_ID":22830,"ELEMENT_SET_NO":999,"REV_AT_EPOCH":69865,"BSTAR":8.5352e-5,"MEAN_MOTION_DOT":1.9e-6,"MEAN_MOTION_DDOT":0},{"OBJECT_NAME":"COSMOS 2278","OBJECT_ID":"1994-023A","EPOCH":"2026-04-10T10:09:39.166272","MEAN_MOTION":14.14376824,"ECCENTRICITY":0.0009562,"INCLINATION":71.0502,"RA_OF_ASC_NODE":108.7051,"ARG_OF_PERICENTER":327.7957,"MEAN_ANOMALY":32.2581,"EPHEMERIS_TYPE":0,"CLASSIFICATION_TYPE":"U","NORAD_CAT_ID":23087,"ELEMENT_SET_NO":999,"REV_AT_EPOCH":64929,"BSTAR":0.00014408,"MEAN_MOTION_DOT":2.29e-6,"MEAN_MOTION_DDOT":0},{"OBJECT_NAME":"SL-16 R/B","OBJECT_ID":"1994-023B","EPOCH":"2026-04-10T04:08:44.583936","MEAN_MOTION":14.15020399,"ECCENTRICITY":0.00056596,"INCLINATION":71.0031,"RA_OF_ASC_NODE":4.7704,"ARG_OF_PERICENTER":258.7504,"MEAN_ANOMALY":101.2983,"EPHEMERIS_TYPE":0,"CLASSIFICATION_TYPE":"U","NORAD_CAT_ID":23088,"ELEMENT_SET_NO":999,"REV_AT_EPOCH":65054,"BSTAR":-2.2921851e-5,"MEAN_MOTION_DOT":-9.2e-7,"MEAN_MOTION_DDOT":0},{"OBJECT_NAME":"SL-16 R/B","OBJECT_ID":"1994-074B","EPOCH":"2026-04-10T12:47:51.547200","MEAN_MOTION":14.79446019,"ECCENTRICITY":0.0007982,"INCLINATION":97.7061,"RA_OF_ASC_NODE":130.0544,"ARG_OF_PERICENTER":113.0642,"MEAN_ANOMALY":48.956,"EPHEMERIS_TYPE":0,"CLASSIFICATION_TYPE":"U","NORAD_CAT_ID":23343,"ELEMENT_SET_NO":999,"REV_AT_EPOCH":69195,"BSTAR":6.14e-5,"MEAN_MOTION_DOT":4.09e-6,"MEAN_MOTION_DDOT":0},{"OBJECT_NAME":"SL-16 R/B","OBJECT_ID":"1994-077B","EPOCH":"2026-04-10T11:53:22.401888","MEAN_MOTION":14.15566752,"ECCENTRICITY":0.0001287,"INCLINATION":70.9812,"RA_OF_ASC_NODE":285.5754,"ARG_OF_PERICENTER":174.7696,"MEAN_ANOMALY":185.344,"EPHEMERIS_TYPE":0,"CLASSIFICATION_TYPE":"U","NORAD_CAT_ID":23405,"ELEMENT_SET_NO":999,"REV_AT_EPOCH":62073,"BSTAR":4.437e-6,"MEAN_MOTION_DOT":-3.9e-7,"MEAN_MOTION_DDOT":0},{"OBJECT_NAME":"ARIANE 40+ R/B","OBJECT_ID":"1995-021B","EPOCH":"2026-04-10T10:15:16.344000","MEAN_MOTION":14.39796583,"ECCENTRICITY":0.0007586,"INCLINATION":98.4446,"RA_OF_ASC_NODE":171.4713,"ARG_OF_PERICENTER":54.5872,"MEAN_ANOMALY":315.8503,"EPHEMERIS_TYPE":0,"CLASSIFICATION_TYPE":"U","NORAD_CAT_ID":23561,"ELEMENT_SET_NO":999,"REV_AT_EPOCH":62381,"BSTAR":9.8244e-5,"MEAN_MOTION_DOT":2.65e-6,"MEAN_MOTION_DDOT":0},{"OBJECT_NAME":"SL-16 R/B","OBJECT_ID":"1995-058B","EPOCH":"2026-04-10T10:23:55.771296","MEAN_MOTION":14.15499721,"ECCENTRICITY":0.0010489,"INCLINATION":71.0186,"RA_OF_ASC_NODE":113.611,"ARG_OF_PERICENTER":67.6663,"MEAN_ANOMALY":292.557,"EPHEMERIS_TYPE":0,"CLASSIFICATION_TYPE":"U","NORAD_CAT_ID":23705,"ELEMENT_SET_NO":999,"REV_AT_EPOCH":57234,"BSTAR":0.00016016,"MEAN_MOTION_DOT":2.66e-6,"MEAN_MOTION_DDOT":0},{"OBJECT_NAME":"SL-16 R/B","OBJECT_ID":"1996-051B","EPOCH":"2026-04-10T11:15:10.734336","MEAN_MOTION":14.1242445,"ECCENTRICITY":0.0012791,"INCLINATION":70.7579,"RA_OF_ASC_NODE":107.9747,"ARG_OF_PERICENTER":94.7825,"MEAN_ANOMALY":265.4756,"EPHEMERIS_TYPE":0,"CLASSIFICATION_TYPE":"U","NORAD_CAT_ID":24298,"ELEMENT_SET_NO":999,"REV_AT_EPOCH":52613,"BSTAR":5.4777e-5,"MEAN_MOTION_DOT":5.2e-7,"MEAN_MOTION_DDOT":0},{"OBJECT_NAME":"ORBVIEW 2 (SEASTAR)","OBJECT_ID":"1997-037A","EPOCH":"2026-04-10T09:51:39.498048","MEAN_MOTION":14.35518428,"ECCENTRICITY":0.0001741,"INCLINATION":98.8623,"RA_OF_ASC_NODE":265.5724,"ARG_OF_PERICENTER":356.2552,"MEAN_ANOMALY":3.8619,"EPHEMERIS_TYPE":0,"CLASSIFICATION_TYPE":"U","NORAD_CAT_ID":24883,"ELEMENT_SET_NO":999,"REV_AT_EPOCH":51302,"BSTAR":0.00010925,"MEAN_MOTION_DOT":2.68e-6,"MEAN_MOTION_DDOT":0},{"OBJECT_NAME":"SL-16 R/B","OBJECT_ID":"1998-043G","EPOCH":"2026-04-10T10:41:17.763072","MEAN_MOTION":14.26057519,"ECCENTRICITY":0.0008793,"INCLINATION":98.8303,"RA_OF_ASC_NODE":54.0445,"ARG_OF_PERICENTER":284.4322,"MEAN_ANOMALY":75.5881,"EPHEMERIS_TYPE":0,"CLASSIFICATION_TYPE":"U","NORAD_CAT_ID":25400,"ELEMENT_SET_NO":999,"REV_AT_EPOCH":44351,"BSTAR":4.5938e-5,"MEAN_MOTION_DOT":6.4e-7,"MEAN_MOTION_DDOT":0},{"OBJECT_NAME":"SL-16 R/B","OBJECT_ID":"1998-045B","EPOCH":"2026-04-10T10:17:12.232320","MEAN_MOTION":14.16196616,"ECCENTRICITY":0.0008565,"INCLINATION":71.0087,"RA_OF_ASC_NODE":114.8287,"ARG_OF_PERICENTER":322.7204,"MEAN_ANOMALY":37.3324,"EPHEMERIS_TYPE":0,"CLASSIFICATION_TYPE":"U","NORAD_CAT_ID":25407,"ELEMENT_SET_NO":999,"REV_AT_EPOCH":43159,"BSTAR":0.00017129,"MEAN_MOTION_DOT":2.92e-6,"MEAN_MOTION_DDOT":0},{"OBJECT_NAME":"ISS (ZARYA)","OBJECT_ID":"1998-067A","EPOCH":"2026-04-10T12:31:01.824096","MEAN_MOTION":15.48861768,"ECCENTRICITY":0.0006412,"INCLINATION":51.6328,"RA_OF_ASC_NODE":274.9695,"ARG_OF_PERICENTER":295.7162,"MEAN_ANOMALY":64.3164,"EPHEMERIS_TYPE":0,"CLASSIFICATION_TYPE":"U","NORAD_CAT_ID":25544,"ELEMENT_SET_NO":999,"REV_AT_EPOCH":56126,"BSTAR":0.00012746,"MEAN_MOTION_DOT":6.547e-5,"MEAN_MOTION_DDOT":0},{"OBJECT_NAME":"CZ-4B R/B","OBJECT_ID":"1999-025C","EPOCH":"2026-04-10T09:39:10.346112","MEAN_MOTION":14.18271934,"ECCENTRICITY":0.0036022,"INCLINATION":98.6562,"RA_OF_ASC_NODE":143.9228,"ARG_OF_PERICENTER":253.1057,"MEAN_ANOMALY":117.2198,"EPHEMERIS_TYPE":0,"CLASSIFICATION_TYPE":"U","NORAD_CAT_ID":25732,"ELEMENT_SET_NO":999,"REV_AT_EPOCH":39266,"BSTAR":3.6172e-5,"MEAN_MOTION_DOT":3.2e-7,"MEAN_MOTION_DDOT":0},{"OBJECT_NAME":"OKEAN-O","OBJECT_ID":"1999-039A","EPOCH":"2026-04-10T10:05:14.301024","MEAN_MOTION":14.80388621,"ECCENTRICITY":0.0001025,"INCLINATION":97.9379,"RA_OF_ASC_NODE":159.9787,"ARG_OF_PERICENTER":112.8584,"MEAN_ANOMALY":247.2736,"EPHEMERIS_TYPE":0,"CLASSIFICATION_TYPE":"U","NORAD_CAT_ID":25860,"ELEMENT_SET_NO":999,"REV_AT_EPOCH":43908,"BSTAR":8.6747e-5,"MEAN_MOTION_DOT":6.1e-6,"MEAN_MOTION_DDOT":0},{"OBJECT_NAME":"SL-16 R/B","OBJECT_ID":"1999-039B","EPOCH":"2026-04-10T10:30:36.498816","MEAN_MOTION":14.81777886,"ECCENTRICITY":0.0015514,"INCLINATION":97.9901,"RA_OF_ASC_NODE":159.4763,"ARG_OF_PERICENTER":149.9873,"MEAN_ANOMALY":210.2232,"EPHEMERIS_TYPE":0,"CLASSIFICATION_TYPE":"U","NORAD_CAT_ID":25861,"ELEMENT_SET_NO":999,"REV_AT_EPOCH":44156,"BSTAR":7.521e-5,"MEAN_MOTION_DOT":5.41e-6,"MEAN_MOTION_DDOT":0},{"OBJECT_NAME":"DELTA 2 R/B","OBJECT_ID":"1999-041E","EPOCH":"2026-04-10T12:13:40.715328","MEAN_MOTION":14.1191098,"ECCENTRICITY":0.0502595,"INCLINATION":51.7604,"RA_OF_ASC_NODE":174.1655,"ARG_OF_PERICENTER":82.262,"MEAN_ANOMALY":283.5058,"EPHEMERIS_TYPE":0,"CLASSIFICATION_TYPE":"U","NORAD_CAT_ID":25876,"ELEMENT_SET_NO":999,"REV_AT_EPOCH":36752,"BSTAR":0.00016692,"MEAN_MOTION_DOT":7.91e-6,"MEAN_MOTION_DDOT":0}]
